#cP2022  3  5 12  0  0.00000000     576 d+D   IGb14 EXT AIUB
## 2199 561600.00000000   300.00000000 59643 0.5000000000000
+   76   G01G02G03G04G05G06G07G08G09G10G11G12G13G14G15G16G17
+        G18G19G20G21G22G23G24G25G26G27G28G29G30G31G32R01R02
+        R03R04R05R07R08R09R11R12R13R14R15R17R18R19R20R21R22
+        R24E01E02E03E04E05E07E08E09E10E11E12E13E15E18E19E21
+        E25E26E27E30E31E33E34E36  0  0  0  0  0  0  0  0  0
++         6  7  6  8  7  6  7  6  6  5  8  7  7  7  7  7  7
++         8  7  7  7  7  7  7  6  6  6  7  7  6  7  6  9  7
++         8  8  7  8  8  6  6  7  7  6  6  8  7  9  9  8  7
++         8  5  6  6  6  6  6  6  6  7  7  7  7  6  7  7  6
++         6  7  6  6  8  6  6  6  0  0  0  0  0  0  0  0  0
%c M  cc GPS ccc cccc cccc cccc cccc ccccc ccccc ccccc ccccc
%c cc cc ccc ccc cccc cccc cccc cccc ccccc ccccc ccccc ccccc
%f  1.2500000  1.025000000  0.00000000000  0.000000000000000
%f  0.0000000  0.000000000  0.00000000000  0.000000000000000
%i    0    0    0    0      0      0      0      0         0
%i    0    0    0    0      0      0      0      0         0
/* Center for Orbit Determination in Europe (CODE)          
/* Ultra-rapid GRE orbits starting year-day 22064 12 hour   
/* Observed/predicted: 24/24 hours (data used up to 065L)   
/* PCV:IGS14      OL/AL:FES2014b NONE     YN ORB:CoN CLK:BRD
*  2022  3  7  0 55  0.00000000
PG01  22530.082722  14344.379270   1256.463673    415.123562               P   P
PG02  -8464.273513 -18612.127144  17539.769192   -651.914803               P   P
PG03  12892.022962  11762.506718  19952.309094   -151.848793               P   P
PG04  19888.123430   4111.741344  17166.928989   -185.372887               P   P
PG05  -6054.698376 -24078.046483  -9382.489026    -73.769238               P   P
PG06   7864.923323 -12402.362695  22198.810829    222.893162               P   P
PG07  22018.090861   2187.018940 -14659.709263    314.608705               P   P
PG08  11154.655647  10999.540396 -21519.270503    -58.841682               P   P
PG09  24441.468599  -5917.114190   8527.822048   -351.080207               P   P
PG10 -11555.628924  18060.164772 -15338.710444   -339.352780               P   P
PG11  -6651.461450 -19523.678303  16739.909676    -69.636507               P   P
PG12 -10622.474017 -15681.794531  18405.103958   -181.018251               P   P
PG13  -1865.518669 -15202.930380 -21837.793919    272.620815               P   P
PG14  12954.451650 -17025.938866 -15698.869785    -91.257663               P   P
PG15 -13200.022639 -10149.453643 -21146.536165    -78.751164               P   P
PG16    451.651256  25604.302820  -6318.795100   -477.643730               P   P
PG17  21508.194012 -14180.117611   7002.153231    583.885010               P   P
PG18 -21561.252538  -2081.195415 -15441.285966    225.652733               P   P
PG19  16738.432188 -15584.042883  13084.496108    127.660655               P   P
PG20  -1845.530779 -26618.509090    862.034254    516.415875               P   P
PG21  19161.616753  16863.787772  -7776.192539    159.049296               P   P
PG22 -13222.267246  17076.383790  15738.894658    223.608842               P   P
PG23 -14730.736417   6802.319885 -21020.077316     -4.610617               P   P
PG24 -21883.897690 -15116.093250  -3457.483057    270.198349               P   P
PG25 -15089.959501  -1575.159332  21518.963955    294.797755               P   P
PG26  -5171.129335  24974.706739   6732.334572    188.729968               P   P
PG27  -1039.136077  16437.371360 -20947.362818    145.086229               P   P
PG28   9335.227263 -23443.547037  -8127.831735    386.080061               P   P
PG29 -24338.125328   2416.852638  10382.078098   -488.296200               P   P
PG30  16846.126884  -5949.018200 -19651.149567   -517.277100               P   P
PG31  -6166.028396  14178.940565  21430.821297   -167.774001               P   P
PG32 -18231.121253  16730.944802   9521.534832    -79.896519               P   P
PR01 -16781.689029   9234.593540 -16847.315280      7.179566               P   P
PR02 -15011.056585  20522.868668   1610.166422    511.671765               P   P
PR03  -3805.923072  18413.538083  17255.348781     52.706273               P   P
PR04   9058.463642   5962.392272  23118.964247    130.751661               P   P
PR05  17146.548435  -9681.705876  16243.675835     88.923887               P   P
PR07   3397.697982 -18122.032104 -17608.914792     32.356009               P   P
PR08  -9200.286856  -5910.514278 -22984.761141    -63.872896               P   P
PR09   3206.432838 -16391.213765 -19240.495558     42.993150               P   P
PR11 -13803.725600 -18098.373768  11509.672165     44.172416               P   P
PR12 -12092.688109  -1028.848748  22457.808936     17.350540               P   P
PR13  -3726.201826  15425.205522  19948.003285    -19.105151               P   P
PR14   7507.360939  23864.796469   5016.461557     75.081363               P   P
PR15  13744.624106  17726.928733 -12130.294220     97.695462               P   P
PR17   5828.532830  10981.694359 -22257.398767    507.412314               P   P
PR18  20971.678405   8388.977450 -11894.341506    109.458573               P   P
PR19  25112.492117   2635.075113   3635.967901   -180.635538               P   P
PR20  13986.621543  -6709.233308  20275.229742    -66.234466               P   P
PR21  -7384.302454 -10948.639931  21829.178052   -283.275021               P   P
PR22 -21360.433160  -8213.603515  11143.749717   -168.973808               P   P
PR24 -13204.166848   7692.132892 -20407.241672     83.232805               P   P
PE01 -15198.605550 -14337.932980  20966.194406   -591.866312               P   P
PE02  15251.376758  14137.371952 -21062.507309    284.574843               P   P
PE03  20750.965684   3690.556731  20779.763613   -534.706306               P   P
PE04 -26169.775235  12356.554813  -6202.820928   -979.016283               P   P
PE05   3031.423004  17866.374350  23408.548114   -202.787876               P   P
PE07  16211.848036 -21445.718117 -12372.749119   -645.766170               P   P
PE08  26055.901116 -12747.869643   5875.518741   -490.824158               P   P
PE09 -15987.577285  21485.036999  12625.812590   5337.345367               P   P
PE10 -16997.787080   8225.458747 -22796.491314   -499.043937               P   P
PE11  -6767.997824  14653.693855 -24816.345479   4294.236377               P   P
PE12 -24052.756274    849.921365 -17212.003688   4726.309348               P   P
PE13   7452.062252 -14238.322556  24865.465773    427.087954               P   P
PE15  24133.476999   -743.569098  17140.560040    759.325739               P   P
PE18  24901.868747  -5844.627137  -4738.441848  -1714.286031               P   P
PE19 -19002.698951  -5675.826852 -21964.639403   -888.348433               P   P
PE21  -6625.277324 -28003.174119   6950.421495   -721.042859               P   P
PE25   6473.513812  28085.322576  -6719.499637   -565.905698               P   P
PE26 -14332.994103 -19398.752278  17163.224103   -882.660883               P   P
PE27   6290.247201 -26399.320593 -11840.566222   -247.356453               P   P
PE30  15751.685731  -8036.722319 -23754.987307   -327.863316               P   P
PE31 -15404.875134   9259.873545  23518.019912   -493.155765               P   P
PE33 -26506.166827 -13141.491815    673.845734   -458.803384               P   P
PE34  26600.619323  12975.785856   -458.207988   -505.419630               P   P
PE36  13523.591951  19288.988730 -17924.681962   -341.687792               P   P
EOF
